NORAD_CAT_ID,OBJECT_NAME,OBJECT_TYPE,EPOCH,MEAN_MOTION,ECCENTRICITY,INCLINATION,RA_OF_ASC_NODE,ARG_OF_PERICENTER,MEAN_ANOMALY,BSTAR,MEAN_MOTION_DOT,MEAN_MOTION_DDOT,TLE_LINE0,TLE_LINE1,TLE_LINE2,SEMIMAJOR_AXIS,PERIOD,APOGEE,PERIGEE,DECAYED
51729.0,STARLINK-3523,PAYLOAD,2023-10-15 17:26:13,15.0884167,0.000139,53.2176,291.4681,85.4335,274.6816,-3.4685e-05,-8.4e-06,0.0,0 STARLINK-3523,1 51729U 22016R   23288.72654666 -.00000840  00000-0 -34685-4 0  9994,2 51729  53.2176 291.4681 0001390  85.4335 274.6816 15.08841670 92456,6917.875,95.437,540.702,538.779,0.0
51729.0,STARLINK-3523,PAYLOAD,2023-10-16 07:44:41,15.08851095,0.0001529,53.2168,288.7919,94.0621,266.0546,0.00018469,2.653e-05,0.0,0 STARLINK-3523,1 51729U 22016R   23289.32269862  .00002653  00000-0  18469-3 0  9994,2 51729  53.2168 288.7919 0001529  94.0621 266.0546 15.08851095 92545,6917.846,95.437,540.769,538.654,0.0
51729.0,STARLINK-3523,PAYLOAD,2023-10-16 09:20:04,15.08853654,0.0001532,53.2168,288.4942,94.1662,265.9505,0.00023407,3.441e-05,0.0,0 STARLINK-3523,1 51729U 22016R   23289.38893748  .00003441  00000-0  23407-3 0  9990,2 51729  53.2168 288.4942 0001532  94.1662 265.9505 15.08853654 91420,6917.839,95.437,540.763,538.644,0.0
51729.0,STARLINK-3523,PAYLOAD,2023-10-17 09:10:51,15.088468,0.000168,53.2174,284.0323,113.3445,246.7724,0.00026358,3.91e-05,0.0,0 STARLINK-3523,1 51729U 22016R   23290.38254073  .00003910  00000-0  26358-3 0  9993,2 51729  53.2174 284.0323 0001680 113.3445 246.7724 15.08846800 92706,6917.86,95.437,540.887,538.562,0.0
51729.0,STARLINK-3523,PAYLOAD,2023-10-17 23:29:20,15.08841069,0.0001406,53.2185,281.3586,98.8899,261.2253,4.6054e-05,4.45e-06,0.0,0 STARLINK-3523,1 51729U 22016R   23290.97870448  .00000445  00000-0  46054-4 0  9994,2 51729  53.2185 281.3586 0001406  98.8899 261.2253 15.08841069 91660,6917.877,95.437,540.715,538.769,0.0
51729.0,STARLINK-3523,PAYLOAD,2023-10-18 05:50:52,15.0884304,0.0001402,53.2186,280.1693,99.4163,260.6988,7.6446e-05,9.29e-06,0.0,0 STARLINK-3523,1 51729U 22016R   23291.24366361  .00000929  00000-0  76446-4 0  9994,2 51729  53.2186 280.1693 0001402  99.4163 260.6988 15.08843040 92833,6917.871,95.437,540.706,538.766,0.0
51729.0,STARLINK-3523,PAYLOAD,2023-10-19 08:52:25,15.0885156,0.0001678,53.2178,275.1132,100.2668,259.8513,0.0002019,2.928e-05,0.0,0 STARLINK-3523,1 51729U 22016R   23292.36973994  .00002928  00000-0  20190-3 0  9999,2 51729  53.2178 275.1132 0001678 100.2668 259.8513 15.08851560 93002,6917.845,95.437,540.871,538.549,0.0
51729.0,STARLINK-3523,PAYLOAD,2023-10-20 03:57:03,15.08843677,0.0001583,53.217,271.5455,100.8019,259.3152,0.00019307,2.786e-05,0.0,0 STARLINK-3523,1 51729U 22016R   23293.16462447  .00002786  00000-0  19307-3 0  9994,2 51729  53.2170 271.5455 0001583 100.8019 259.3152 15.08843677 93120,6917.869,95.437,540.829,538.639,0.0
51729.0,STARLINK-3523,PAYLOAD,2023-10-20 08:43:12,15.08844443,0.0001638,53.2175,270.6527,97.499,262.6189,0.00020846,3.032e-05,0.0,0 STARLINK-3523,1 51729U 22016R   23293.36334446  .00003032  00000-0  20846-3 0  9998,2 51729  53.2175 270.6527 0001638  97.4990 262.6189 15.08844443 92022,6917.867,95.437,540.865,538.599,0.0
51729.0,STARLINK-3523,PAYLOAD,2023-10-21 02:12:28,15.0883252,0.0001968,53.2172,267.3795,115.5493,244.5703,-3.4106e-05,-8.31e-06,0.0,0 STARLINK-3523,1 51729U 22016R   23294.09199172 -.00000831  00000-0 -34106-4 0  9995,2 51729  53.2172 267.3795 0001968 115.5493 244.5703 15.08832520 93266,6917.903,95.438,541.13,538.407,0.0
51729.0,STARLINK-3523,PAYLOAD,2023-10-21 05:23:14,15.0883408,0.000164,53.2173,266.7827,103.8073,256.3101,-3.0028e-05,-7.66e-06,0.0,0 STARLINK-3523,1 51729U 22016R   23294.22447172 -.00000766  00000-0 -30028-4 0  9992,2 51729  53.2173 266.7827 0001640 103.8073 256.3101 15.08834080 92150,6917.898,95.438,540.898,538.629,0.0
51729.0,STARLINK-3523,PAYLOAD,2023-10-21 14:55:32,15.08843091,0.0001527,53.2179,265.0055,98.6017,261.5149,7.3192e-05,8.77e-06,0.0,0 STARLINK-3523,1 51729U 22016R   23294.62190774  .00000877  00000-0  73192-4 0  9999,2 51729  53.2179 265.0055 0001527  98.6017 261.5149 15.08843091 93348,6917.871,95.437,540.792,538.68,0.0
51729.0,STARLINK-3523,PAYLOAD,2023-10-22 05:14:00,15.08854116,0.0001526,53.2175,262.3308,108.2646,251.8512,0.0004259,6.499e-05,0.0,0 STARLINK-3523,1 51729U 22016R   23295.21806445  .00006499  00000-0  42590-3 0  9997,2 51729  53.2175 262.3308 0001526 108.2646 251.8512 15.08854116 93436,6917.837,95.437,540.758,538.647,0.0
51729.0,STARLINK-3523,PAYLOAD,2023-10-22 14:46:19,15.08846959,0.0001533,53.2179,260.5453,86.4691,273.6477,0.00026311,3.903e-05,0.0,0 STARLINK-3523,1 51729U 22016R   23295.61550588  .00003903  00000-0  26311-3 0  9995,2 51729  53.2179 260.5453 0001533  86.4691 273.6477 15.08846959 93490,6917.859,95.437,540.785,538.664,0.0
51729.0,STARLINK-3523,PAYLOAD,2023-10-23 05:04:48,15.08832844,0.0001485,53.217,257.8708,84.7183,275.3979,-0.00012856,-2.333e-05,0.0,0 STARLINK-3523,1 51729U 22016R   23296.21167205 -.00002333  00000-0 -12856-3 0  9999,2 51729  53.2170 257.8708 0001485  84.7183 275.3979 15.08832844 93580,6917.902,95.438,540.795,538.74,0.0
51729.0,STARLINK-3523,PAYLOAD,2023-10-23 14:37:07,15.08824227,0.0001482,53.2168,256.087,85.9224,274.1937,0.00032124,4.826e-05,0.0,0 STARLINK-3523,1 51729U 22016R   23296.60911804  .00004826  00000-0  32124-3 0  9991,2 51729  53.2168 256.0870 0001482  85.9224 274.1937 15.08824227 92513,6917.929,95.439,540.819,538.768,0.0
51729.0,STARLINK-3523,PAYLOAD,2023-10-24 06:30:59,15.08838515,0.0001434,53.2164,253.1134,86.4075,273.7081,0.00068823,0.00010682,0.0,0 STARLINK-3523,1 51729U 22016R   23297.27152177  .00010682  00000-0  68823-3 0  9997,2 51729  53.2164 253.1134 0001434  86.4075 273.7081 15.08838515 93743,6917.885,95.438,540.742,538.758,0.0
51729.0,STARLINK-3523,PAYLOAD,2023-10-24 14:27:55,15.08845278,0.0001431,53.2162,251.6262,86.6398,273.4758,0.00071049,0.00011039,0.0,0 STARLINK-3523,1 51729U 22016R   23297.60272111  .00011039  00000-0  71049-3 0  9996,2 51729  53.2162 251.6262 0001431  86.6398 273.4758 15.08845278 92665,6917.864,95.437,540.719,538.739,0.0
51729.0,STARLINK-3523,PAYLOAD,2023-10-25 06:21:45,15.0887152,0.0001385,53.2159,248.651,91.1377,268.9774,0.0010309,0.00016171,0.0,0 STARLINK-3523,1 51729U 22016R   23298.26511078  .00016171  00000-0  10309-2 0  9990,2 51729  53.2159 248.6510 0001385  91.1377 268.9774 15.08871520 93891,6917.784,95.436,540.607,538.691,0.0
51729.0,STARLINK-3523,PAYLOAD,2023-10-26 03:01:46,15.08854243,0.0001396,53.2165,244.7848,82.9191,277.1959,0.00059461,9.192e-05,0.0,0 STARLINK-3523,1 51729U 22016R   23299.12623206  .00009192  00000-0  59461-3 0  9991,2 51729  53.2165 244.7848 0001396  82.9191 277.1959 15.08854243 94029,6917.837,95.437,540.668,538.736,0.0
51729.0,STARLINK-3523,PAYLOAD,2023-10-26 06:12:32,15.08857891,0.0001379,53.2165,244.1899,82.2711,277.8438,0.0008087,0.00012612,0.0,0 STARLINK-3523,1 51729U 22016R   23299.25871110  .00012612  00000-0  80870-3 0  9993,2 51729  53.2165 244.1899 0001379  82.2711 277.8438 15.08857891 92918,6917.826,95.436,540.645,538.737,0.0
51729.0,STARLINK-3523,PAYLOAD,2023-10-27 02:52:32,15.08857518,0.0001485,53.217,240.3218,95.5691,264.5471,0.00074621,0.00011614,0.0,0 STARLINK-3523,1 51729U 22016R   23300.11982628  .00011614  00000-0  74621-3 0  9996,2 51729  53.2170 240.3218 0001485  95.5691 264.5471 15.08857518 94175,6917.827,95.436,540.719,538.665,0.0
51729.0,STARLINK-3523,PAYLOAD,2023-10-27 20:21:47,15.0884373,0.0001511,53.2173,237.0504,87.7344,272.3821,0.00017315,2.469e-05,0.0,0 STARLINK-3523,1 51729U 22016R   23300.84847097  .00002469  00000-0  17315-3 0  9991,2 51729  53.2173 237.0504 0001511  87.7344 272.3821 15.08843730 94286,6917.869,95.437,540.779,538.689,0.0
51729.0,STARLINK-3523,PAYLOAD,2023-10-28 12:15:39,15.08837695,0.0001375,53.2173,234.0781,101.9826,258.132,2.764e-05,1.52e-06,0.0,0 STARLINK-3523,1 51729U 22016R   23301.51087376  .00000152  00000-0  27640-4 0  9992,2 51729  53.2173 234.0781 0001375 101.9826 258.1320 15.08837695 94382,6917.887,95.438,540.704,538.801,0.0
51729.0,STARLINK-3523,PAYLOAD,2023-10-29 02:34:06,15.08864796,0.0001552,53.2173,231.4028,101.0068,259.1099,0.00056201,8.674e-05,0.0,0 STARLINK-3523,1 51729U 22016R   23302.10702541  .00008674  00000-0  56201-3 0  9997,2 51729  53.2173 231.4028 0001552 101.0068 259.1099 15.08864796 94479,6917.805,95.436,540.743,538.596,0.0
51729.0,STARLINK-3523,PAYLOAD,2023-10-29 12:06:26,15.08843076,0.0001449,53.2176,229.619,94.547,265.5688,0.00020584,2.99e-05,0.0,0 STARLINK-3523,1 51729U 22016R   23302.50447370  .00002990  00000-0  20584-3 0  9997,2 51729  53.2176 229.6190 0001449  94.5470 265.5688 15.08843076 94539,6917.871,95.437,540.738,538.734,0.0
51729.0,STARLINK-3523,PAYLOAD,2023-10-30 04:00:18,15.08840096,0.0001482,53.2177,226.6461,99.131,260.9849,0.0002195,3.207e-05,0.0,0 STARLINK-3523,1 51729U 22016R   23303.16688027  .00003207  00000-0  21950-3 0  9996,2 51729  53.2177 226.6461 0001482  99.1310 260.9849 15.08840096 94637,6917.88,95.438,540.77,538.72,0.0
51729.0,STARLINK-3523,PAYLOAD,2023-10-30 11:57:14,15.08836272,0.0001764,53.2178,225.1601,90.5498,269.5696,0.0001238,1.683e-05,0.0,0 STARLINK-3523,1 51729U 22016R   23303.49808390  .00001683  00000-0  12380-3 0  9992,2 51729  53.2178 225.1601 0001764  90.5498 269.5696 15.08836272 93559,6917.892,95.438,540.977,538.536,0.0
51729.0,STARLINK-3523,PAYLOAD,2023-10-31 02:15:42,15.08838966,0.000156,53.2179,222.4834,78.7138,281.403,0.00020044,2.903e-05,0.0,0 STARLINK-3523,1 51729U 22016R   23304.09424549  .00002903  00000-0  20044-3 0  9991,2 51729  53.2179 222.4834 0001560  78.7138 281.4030 15.08838966 94773,6917.884,95.438,540.828,538.669,0.0
51729.0,STARLINK-3523,PAYLOAD,2023-10-31 11:48:01,15.08842681,0.0001568,53.2178,220.6993,88.5086,271.6086,5.7988e-05,6.35e-06,0.0,0 STARLINK-3523,1 51729U 22016R   23304.49168349  .00000635  00000-0  57988-4 0  9996,2 51729  53.2178 220.6993 0001568  88.5086 271.6086 15.08842681 93700,6917.872,95.437,540.822,538.652,0.0
